{
  "type": "FeatureCollection",
  "features": [
    {
      "type": "Feature",
      "properties": {
        "norad_id": 22490,
        "name": "SCD 1",
        "group": "resource",
        "lat": 11.752200574684032,
        "lon": -57.831660817023206,
        "alt_km": 719.5443340332486,
        "timestamp": "2025-12-13T05:42:57.153346+00:00",
        "meta_object_name": "SCD 1",
        "meta_object_id": "1993-009B",
        "meta_epoch": "2025-12-12T05:23:25.712160",
        "meta_mean_motion": 14.4599861,
        "meta_eccentricity": 0.00417838,
        "meta_inclination": 24.97,
        "meta_ra_of_asc_node": 281.8676,
        "meta_arg_of_pericenter": 319.5532,
        "meta_mean_anomaly": 182.0481,
        "meta_ephemeris_type": 0,
        "meta_classification_type": "U",
        "meta_norad_cat_id": 22490,
        "meta_element_set_no": 999,
        "meta_rev_at_epoch": 73402,
        "meta_bstar": 0.00015231045,
        "meta_mean_motion_dot": 7.43e-06,
        "meta_mean_motion_ddot": 0,
        "tle_line1": "1 22490U 93009B   25346.22460315  .00000743  00000+0  15231-3 0  9999",
        "tle_line2": "2 22490  24.9700 281.8676 0041783 319.5532 182.0481 14.45998610734027"
      },
      "geometry": {
        "type": "Point",
        "coordinates": [
          -57.831660817023206,
          11.752200574684032
        ]
      }
    },
    {
      "type": "Feature",
      "properties": {
        "norad_id": 25397,
        "name": "TECHSAT 1B (GO-32)",
        "group": "resource",
        "lat": -23.26442685020409,
        "lon": 146.5581546228303,
        "alt_km": 817.2487181004017,
        "timestamp": "2025-12-13T05:42:57.153404+00:00",
        "meta_object_name": "TECHSAT 1B (GO-32)",
        "meta_object_id": "1998-043D",
        "meta_epoch": "2025-12-11T22:25:03.715392",
        "meta_mean_motion": 14.2437668,
        "meta_eccentricity": 0.00020723,
        "meta_inclination": 98.992,
        "meta_ra_of_asc_node": 329.1276,
        "meta_arg_of_pericenter": 58.5928,
        "meta_mean_anomaly": 301.5453,
        "meta_ephemeris_type": 0,
        "meta_classification_type": "U",
        "meta_norad_cat_id": 25397,
        "meta_element_set_no": 999,
        "meta_rev_at_epoch": 42467,
        "meta_bstar": 9.2210274e-05,
        "meta_mean_motion_dot": 1.67e-06,
        "meta_mean_motion_ddot": 0,
        "tle_line1": "1 25397U 98043D   25345.93407078  .00000167  00000+0  92210-4 0  9998",
        "tle_line2": "2 25397  98.9920 329.1276 0002072  58.5928 301.5453 14.24376680424678"
      },
      "geometry": {
        "type": "Point",
        "coordinates": [
          146.5581546228303,
          -23.26442685020409
        ]
      }
    },
    {
      "type": "Feature",
      "properties": {
        "norad_id": 25504,
        "name": "SCD 2",
        "group": "resource",
        "lat": 21.380284887313863,
        "lon": -163.9922718648412,
        "alt_km": 737.7396221969102,
        "timestamp": "2025-12-13T05:42:57.153429+00:00",
        "meta_object_name": "SCD 2",
        "meta_object_id": "1998-060A",
        "meta_epoch": "2025-12-11T19:15:45.408960",
        "meta_mean_motion": 14.45422604,
        "meta_eccentricity": 0.00166284,
        "meta_inclination": 24.9932,
        "meta_ra_of_asc_node": 147.6746,
        "meta_arg_of_pericenter": 303.6253,
        "meta_mean_anomaly": 190.8041,
        "meta_ephemeris_type": 0,
        "meta_classification_type": "U",
        "meta_norad_cat_id": 25504,
        "meta_element_set_no": 999,
        "meta_rev_at_epoch": 43318,
        "meta_bstar": 0.00011789504,
        "meta_mean_motion_dot": 6.04e-06,
        "meta_mean_motion_ddot": 0,
        "tle_line1": "1 25504U 98060A   25345.80260890  .00000604  00000+0  11790-3 0  9991",
        "tle_line2": "2 25504  24.9932 147.6746 0016628 303.6253 190.8041 14.45422604433181"
      },
      "geometry": {
        "type": "Point",
        "coordinates": [
          -163.9922718648412,
          21.380284887313863
        ]
      }
    },
    {
      "type": "Feature",
      "properties": {
        "norad_id": 25757,
        "name": "DLR-TUBSAT",
        "group": "resource",
        "lat": 66.6528444992556,
        "lon": 172.43393304723097,
        "alt_km": 709.6477973184092,
        "timestamp": "2025-12-13T05:42:57.153445+00:00",
        "meta_object_name": "DLR-TUBSAT",
        "meta_object_id": "1999-029B",
        "meta_epoch": "2025-12-12T04:24:02.434464",
        "meta_mean_motion": 14.52357346,
        "meta_eccentricity": 0.00138619,
        "meta_inclination": 98.6563,
        "meta_ra_of_asc_node": 330.6799,
        "meta_arg_of_pericenter": 194.5275,
        "meta_mean_anomaly": 165.5522,
        "meta_ephemeris_type": 0,
        "meta_classification_type": "U",
        "meta_norad_cat_id": 25757,
        "meta_element_set_no": 999,
        "meta_rev_at_epoch": 40610,
        "meta_bstar": 7.3019741e-05,
        "meta_mean_motion_dot": 2.49e-06,
        "meta_mean_motion_ddot": 0,
        "tle_line1": "1 25757U 99029B   25346.18336151  .00000249  00000+0  73020-4 0  9993",
        "tle_line2": "2 25757  98.6563 330.6799 0013861 194.5275 165.5522 14.52357346406101"
      },
      "geometry": {
        "type": "Point",
        "coordinates": [
          172.43393304723097,
          66.6528444992556
        ]
      }
    },
    {
      "type": "Feature",
      "properties": {
        "norad_id": 25994,
        "name": "TERRA",
        "group": "resource",
        "lat": -10.418310981616836,
        "lon": -142.57264635568578,
        "alt_km": 694.8577300931674,
        "timestamp": "2025-12-13T05:42:57.153458+00:00",
        "meta_object_name": "TERRA",
        "meta_object_id": "1999-068A",
        "meta_epoch": "2025-12-12T06:10:29.161344",
        "meta_mean_motion": 14.60901204,
        "meta_eccentricity": 0.00036035,
        "meta_inclination": 97.975,
        "meta_ra_of_asc_node": 37.9595,
        "meta_arg_of_pericenter": 95.4967,
        "meta_mean_anomaly": 339.2568,
        "meta_ephemeris_type": 0,
        "meta_classification_type": "U",
        "meta_norad_cat_id": 25994,
        "meta_element_set_no": 999,
        "meta_rev_at_epoch": 38231,
        "meta_bstar": 0.00017223026,
        "meta_mean_motion_dot": 7.98e-06,
        "meta_mean_motion_ddot": 0,
        "tle_line1": "1 25994U 99068A   25346.25728196  .00000798  00000+0  17223-3 0  9992",
        "tle_line2": "2 25994  97.9750  37.9595 0003603  95.4967 339.2568 14.60901204382318"
      },
      "geometry": {
        "type": "Point",
        "coordinates": [
          -142.57264635568578,
          -10.418310981616836
        ]
      }
    },
    {
      "type": "Feature",
      "properties": {
        "norad_id": 27004,
        "name": "MAROC-TUBSAT",
        "group": "resource",
        "lat": 16.597924839685096,
        "lon": 152.74101801569458,
        "alt_km": 1005.695733720172,
        "timestamp": "2025-12-13T05:42:57.153471+00:00",
        "meta_object_name": "MAROC-TUBSAT",
        "meta_object_id": "2001-056D",
        "meta_epoch": "2025-12-12T05:58:58.572192",
        "meta_mean_motion": 13.70252841,
        "meta_eccentricity": 0.0019098,
        "meta_inclination": 99.7912,
        "meta_ra_of_asc_node": 154.6857,
        "meta_arg_of_pericenter": 261.45,
        "meta_mean_anomaly": 279.8273,
        "meta_ephemeris_type": 0,
        "meta_classification_type": "U",
        "meta_norad_cat_id": 27004,
        "meta_element_set_no": 999,
        "meta_rev_at_epoch": 20058,
        "meta_bstar": 4.870257e-05,
        "meta_mean_motion_dot": -4e-08,
        "meta_mean_motion_ddot": 0,
        "tle_line1": "1 27004U 01056D   25346.24928903 -.00000004  00000+0  48703-4 0  9992",
        "tle_line2": "2 27004  99.7912 154.6857 0019098 261.4500 279.8273 13.70252841200589"
      },
      "geometry": {
        "type": "Point",
        "coordinates": [
          152.74101801569458,
          16.597924839685096
        ]
      }
    },
    {
      "type": "Feature",
      "properties": {
        "norad_id": 27424,
        "name": "AQUA",
        "group": "resource",
        "lat": 65.60721264717846,
        "lon": -70.90103549653392,
        "alt_km": 680.3860718823998,
        "timestamp": "2025-12-13T05:42:57.153483+00:00",
        "meta_object_name": "AQUA",
        "meta_object_id": "2002-022A",
        "meta_epoch": "2025-12-12T05:02:00.083616",
        "meta_mean_motion": 14.61807191,
        "meta_eccentricity": 0.00010697,
        "meta_inclination": 98.4037,
        "meta_ra_of_asc_node": 307.0801,
        "meta_arg_of_pericenter": 115.3829,
        "meta_mean_anomaly": 302.7153,
        "meta_ephemeris_type": 0,
        "meta_classification_type": "U",
        "meta_norad_cat_id": 27424,
        "meta_element_set_no": 999,
        "meta_rev_at_epoch": 25595,
        "meta_bstar": 0.00036768908,
        "meta_mean_motion_dot": 1.787e-05,
        "meta_mean_motion_ddot": 0,
        "tle_line1": "1 27424U 02022A   25346.20972319  .00001787  00000+0  36769-3 0  9994",
        "tle_line2": "2 27424  98.4037 307.0801 0001069 115.3829 302.7153 14.61807191255951"
      },
      "geometry": {
        "type": "Point",
        "coordinates": [
          -70.90103549653392,
          65.60721264717846
        ]
      }
    }
  ]
}